ONEWEB-0326             
1 49195U 21083K   24008.44050520  .00000043  00000+0  77212-4 0  9995
2 49195  87.9229 152.6961 0001068  84.8315 275.2939 13.18683976112600
ONEWEB-0327             
1 49196U 21083L   24008.41444502  .00000108  00000+0  24064-3 0  9998
2 49196  87.9232 152.7126 0001113  95.3139 264.8120 13.18687146112622
ONEWEB-0328             
1 49197U 21083M   24008.40064666  .00000066  00000+0  14710-3 0  9997
2 49197  87.9000 137.5371 0001521  97.1356 262.9946 13.13470872113967
ONEWEB-0331             
1 49198U 21083N   24008.43418804  .00000098  00000+0  21459-3 0  9991
2 49198  87.9230 152.6894 0001446  93.7204 266.4094 13.18686374112616
ONEWEB-0333             
1 49199U 21083P   24008.39586388 -.00000062  00000+0 -20333-3 0  9993
2 49199  87.9013 137.5470 0001677 111.9760 248.1548 13.13471583113974
ONEWEB-0334             
1 49200U 21083Q   24008.58988307 -.00000059  00000+0 -17695-3 0  9997
2 49200  87.9187  91.7707 0002251 126.5890 233.5451 13.20772114119236
ONEWEB-0335             
1 49201U 21083R   24008.39110505 -.00000052  00000+0 -17677-3 0  9997
2 49201  87.9013 137.5361 0001660  99.5719 260.5597 13.13471256113984
ONEWEB-0336             
1 49202U 21083S   24008.36095165  .00000151  00000+0  37823-3 0  9992
2 49202  87.9017 137.5403 0001581 111.0906 249.0392 13.13468838113972
ONEWEB-0337             
1 49203U 21083T   24008.44652116 -.00000113  00000+0 -34411-3 0  9997
2 49203  87.9013 137.5216 0001600  98.0386 262.0925 13.13469622113989
ONEWEB-0338             
1 49204U 21083U   24008.29317812  .00000026  00000+0  32262-4 0  9996
2 49204  87.9193  91.8042 0002267 111.2101 248.9275 13.20771092119219
ONEWEB-0339             
1 49205U 21083V   24008.38158081 -.00000401  00000+0 -11327-2 0  9994
2 49205  87.9012 137.5332 0001640  97.5947 262.5368 13.13469329113957
ONEWEB-0340             
1 49206U 21083W   24008.41995059  .00000088  00000+0  18935-3 0  9995
2 49206  87.9233 152.6858 0001450  94.0078 266.1220 13.18684849112575
ONEWEB-0341             
1 49207U 21083X   24008.42786213  .00000089  00000+0  19201-3 0  9995
2 49207  87.9235 152.6989 0002133  83.6461 276.4914 13.18686506112590
ONEWEB-0342             
1 49208U 21083Y   24008.60251574 -.00000039  00000+0 -12803-3 0  9991
2 49208  87.9185  91.7659 0002004 109.2980 250.8370 13.20769692119220
ONEWEB-0343             
1 49209U 21083Z   24008.42313284  .00000029  00000+0  40398-4 0  9997
2 49209  87.9223 152.7173 0002167  87.7913 272.3467 13.18679908112641
ONEWEB-0344             
1 49210U 21083AA  24008.42443740  .00000398  00000+0  10557-2 0  9991
2 49210  87.9017 137.5372 0001392  99.8564 260.2723 13.13468780113967
ONEWEB-0345             
1 49211U 21083AB  24008.36570995  .00000097  00000+0  23097-3 0  9998
2 49211  87.9015 137.5289 0001603  80.1154 280.0156 13.13468884113961
ONEWEB-0346             
1 49212U 21083AC  24008.43259059  .00000064  00000+0  12993-3 0  9999
2 49212  87.9231 152.7079 0001124  89.0195 271.1066 13.18687168112580
ONEWEB-0348             
1 49213U 21083AD  24008.29001923  .00000006  00000+0 -18001-4 0  9993
2 49213  87.9185  91.7869 0001563  79.6462 280.4847 13.20769784119212
ONEWEB-0350             
1 49214U 21083AE  24008.37523606 -.00000193  00000+0 -56293-3 0  9992
2 49214  87.9013 137.5185 0001578  89.7433 270.3877 13.13470644113995
ONEWEB-0351             
1 49215U 21083AF  24008.28370497  .00000011  00000+0 -40582-5 0  9995
2 49215  87.9191  91.7929 0002264 107.5560 252.5821 13.20770862119173
ONEWEB-0352             
1 49216U 21083AG  24008.35619337  .00000247  00000+0  64181-3 0  9992
2 49216  87.9017 137.5484 0001817 108.1634 251.9693 13.13469043114081
ONEWEB-0354             
1 49217U 21083AH  24008.61198878  .00000052  00000+0  97140-4 0  9990
2 49217  87.9187  91.7068 0001981  93.0868 267.0492 13.20771636119253
ONEWEB-0355             
1 49218U 21083AJ  24008.38634265 -.00000390  00000+0 -11040-2 0  9990
2 49218  87.9012 137.5419 0001703 101.1181 259.0140 13.13470351113966
ONEWEB-0357             
1 49219U 21083AK  24008.60882949 -.00000040  00000+0 -13045-3 0  9990
2 49219  87.9193  91.7308 0001801 101.2211 258.9125 13.20771866119251
ONEWEB-0332             
1 49279U 21090A   24008.33607846  .00000251  00000+0  64246-3 0  9996
2 49279  87.8969 107.0527 0001900 118.9049 241.2272 13.14502156110543
ONEWEB-0347             
1 49280U 21090B   24008.59935894 -.00000055  00000+0 -16772-3 0  9998
2 49280  87.9194  91.7275 0002008 119.1862 240.9473 13.20769522113485
ONEWEB-0349             
1 49281U 21090C   24008.25211925 -.00011855  00000+0 -29202-1 0  9994
2 49281  87.9196  91.7943 0002019  88.2427 271.8937 13.20828713112222
ONEWEB-0353             
1 49282U 21090D   24008.32813560 -.00016659  00000+0 -44994-1 0  9998
2 49282  87.8973 107.0383 0001322 114.5165 245.6103 13.14590241110544
ONEWEB-0356             
1 49283U 21090E   24008.25055627  .00000053  00000+0  98493-4 0  9998
2 49283  87.9185  91.7907 0000834 115.0191 245.1029 13.20772846112223
ONEWEB-0358             
1 49284U 21090F   24008.58358252 -.00000126  00000+0 -34222-3 0  9997
2 49284  87.9192  91.7092 0001513  94.6014 265.5292 13.20773383112997
ONEWEB-0359             
1 49285U 21090G   24008.27740722  .00000016  00000+0  85625-5 0  9992
2 49285  87.9181  91.7911 0001982  87.4771 272.6589 13.20772171112932
ONEWEB-0360             
1 49286U 21090H   24008.26791839 -.00000109  00000+0 -30109-3 0  9997
2 49286  87.9193  91.7970 0001889 100.6130 259.5216 13.20771019112249
ONEWEB-0361             
1 49287U 21090J   24008.24898471  .00000153  00000+0  34331-3 0  9994
2 49287  87.9185  91.7950 0001654 105.5140 254.6177 13.20771561112697
ONEWEB-0362             
1 49288U 21090K   24008.32990253  .00000162  00000+0  37224-3 0  9999
2 49288  87.9210 122.3168 0002120 103.6453 256.4916 13.19726047109418
ONEWEB-0363             
1 49289U 21090L   24008.26476673  .00000087  00000+0  18315-3 0  9994
2 49289  87.9183  91.7875 0001340 101.0162 259.1122 13.20770716112703
ONEWEB-0364             
1 49290U 21090M   24008.60568249 -.00000011  00000+0 -59947-4 0  9991
2 49290  87.9196  91.7417 0001819 110.5774 249.5554 13.20771763113881
ONEWEB-0365             
1 49291U 21090N   24008.33938097  .00000104  00000+0  22634-3 0  9997
2 49291  87.9204 122.3056 0001824 106.0148 254.1186 13.19725963108924
ONEWEB-0366             
1 49292U 21090P   24008.32497723  .00000169  00000+0  42232-3 0  9990
2 49292  87.8975 107.0473 0001693 114.6576 245.4730 13.14503750110526
ONEWEB-0367             
1 49293U 21090Q   24008.26318775  .00000097  00000+0  20685-3 0  9991
2 49293  87.9192  91.7816 0001798 112.7485 247.3838 13.20771181112224
ONEWEB-0368             
1 49294U 21090R   24008.31211259 -.00000025  00000+0 -93094-4 0  9995
2 49294  87.9196  91.8003 0001545 135.7760 224.3496 13.20770607113384
ONEWEB-0369             
1 49295U 21090S   24008.33463486 -.00000096  00000+0 -27154-3 0  9990
2 49295  87.9201 122.2978 0001760 111.3587 248.7733 13.19725681108915
ONEWEB-0370             
1 49296U 21090T   24008.27265887  .00000101  00000+0  21688-3 0  9990
2 49296  87.9183  91.7838 0001694 101.8583 258.2740 13.20770105112266
ONEWEB-0371             
1 49297U 21090U   24008.34255518  .00000078  00000+0  16233-3 0  9992
2 49297  87.9210 122.2870 0001806 107.0918 253.0413 13.19729654108951
ONEWEB-0372             
1 49298U 21090V   24008.26147448  .00000056  00000+0  10559-3 0  9997
2 49298  87.9194  91.7936 0001918 108.8979 251.2362 13.20770432112237
ONEWEB-0373             
1 49299U 21090W   24008.59146981  .00000035  00000+0  54750-4 0  9994
2 49299  87.9202  91.7466 0001518 112.7566 247.3727 13.20766192113463
ONEWEB-0374             
1 49300U 21090X   24008.31228856  .00000011  00000+0 -41308-5 0  9990
2 49300  87.8973 107.0361 0001649 110.6758 249.4549 13.14502719110525
ONEWEB-0375             
1 49301U 21090Y   24008.27581273  .00000040  00000+0  65571-4 0  9999
2 49301  87.9194  91.7847 0001100  92.7416 267.3843 13.20770336112924
ONEWEB-0376             
1 49302U 21090Z   24008.34095329 -.00000126  00000+0 -34690-3 0  9994
2 49302  87.9201 122.3062 0001880 110.8771 249.2563 13.19724831108958
ONEWEB-0377             
1 49303U 21090AA  24008.26174312 -.00000392  00000+0 -99521-3 0  9995
2 49303  87.9192  91.7784 0001837  95.5809 264.5534 13.20771891112910
ONEWEB-0378             
1 49304U 21090AB  24008.23714996  .00000100  00000+0  21463-3 0  9996
2 49304  87.9195  91.7965 0001569 113.1306 246.9993 13.20771174112171
ONEWEB-0379             
1 49305U 21090AC  24008.30752823 -.00000070  00000+0 -22211-3 0  9996
2 49305  87.8973 107.0389 0001663 109.9736 250.1573 13.14505065110526
ONEWEB-0380             
1 49306U 21090AD  24008.33779784  .00000128  00000+0  28696-3 0  9990
2 49306  87.9203 122.3005 0001681 100.9521 259.1801 13.19726489108926
ONEWEB-0381             
1 49307U 21090AE  24008.56148294  .00000125  00000+0  27523-3 0  9997
2 49307  87.9193  91.7248 0001767 101.0833 259.0499 13.20770739112269
ONEWEB-0382             
1 49308U 21090AF  24008.24582656  .00000118  00000+0  25866-3 0  9997
2 49308  87.9192  91.7857 0001270 108.8082 251.3190 13.20771242112213
ONEWEB-0383             
1 49309U 21090AG  24008.30118940 -.00000153  00000+0 -44772-3 0  9994
2 49309  87.8983 107.0320 0001530 113.2653 246.8637 13.14503006110554
ONEWEB-0384             
1 49310U 21090AH  24008.24266779  .00000120  00000+0  26408-3 0  9991
2 49310  87.9195  91.7951 0001147 109.9010 250.2247 13.20771928112223
ONEWEB-0385             
1 49311U 21090AJ  24008.23793523  .00000063  00000+0  12259-3 0  9998
2 49311  87.9196  91.7974 0001363 101.5692 258.5594 13.20772243112197
ONEWEB-0386             
1 49312U 21090AK  24008.25529339  .00000133  00000+0  29532-3 0  9993
2 49312  87.9186  91.8000 0001490 108.7459 251.3836 13.20773130112218
